IRIDIUM 33 DEB          
1 36012U 97051UT  26061.57434414  .00004793  00000+0  17491-2 0  9997
2 36012  86.4405 275.3020 0217870   7.8434 352.6069 14.20541890666172
IRIDIUM 33 DEB          
1 36028U 97051VK  26060.88947523  .00025841  00000+0  20734-2 0  9998
2 36028  86.3146 269.3331 0017594 119.5716 240.7272 14.99842236883092
IRIDIUM 33 DEB          
1 36080U 97051VM  26056.50340220  .00001938  00000+0  52714-3 0  9996
2 36080  86.3236 335.4170 0014825 275.8181  84.1332 14.47006283484958
IRIDIUM 33 DEB          
1 36083U 97051VQ  26061.09977094  .00002437  00000+0  71133-3 0  9995
2 36083  86.3485 359.9819 0025324 329.2153  30.7561 14.43575491865948
IRIDIUM 33 DEB          
1 36390U 97051VU  26060.28946878  .00006003  00000+0  88857-3 0  9996
2 36390  86.2859 263.3476 0027954 255.4751 104.3366 14.74753978674193
IRIDIUM 33 DEB          
1 36483U 97051VZ  26056.63614572  .00001873  00000+0  51909-3 0  9994
2 36483  86.3812  20.4101 0007000 234.8466 125.2081 14.46131522662284
IRIDIUM 33 DEB          
1 36490U 97051WG  26060.48406351  .00014249  00000+0  19433-2 0  9990
2 36490  86.3683 334.8899 0004533 105.0234 255.1488 14.78574779876476
IRIDIUM 33 DEB          
1 36493U 97051WK  26059.06648870  .00007173  00000+0  12878-2 0  9993
2 36493  86.3608 337.3012 0013108  82.3547 277.9154 14.66545736756515
IRIDIUM 33 DEB          
1 37548U 97051XH  26058.61648586  .00004301  00000+0  10559-2 0  9993
2 37548  86.3541   9.8892 0022794 300.6162  59.2795 14.52027279666479
IRIDIUM 33 DEB          
1 37550U 97051XK  26060.07640092  .00008246  00000+0  14140-2 0  9995
2 37550  86.3813 349.1253 0002140 143.8998 216.2362 14.68650676874827
IRIDIUM 33 DEB          
1 37562U 97051XX  26061.61133280  .00006010  00000+0  13158-2 0  9990
2 37562  86.3781   8.7448 0022579 191.3853 292.3427 14.57426225874910
IRIDIUM 33 DEB          
1 37565U 97051YA  26059.50280610  .00002193  00000+0  53800-3 0  9995
2 37565  86.3534 335.7057 0012449 170.3944 189.7502 14.51968224669651
IRIDIUM 33 DEB          
1 38017U 97051YD  26061.62287747  .00010593  00000+0  24884-2 0  9994
2 38017  86.3392 131.4108 0091891 196.0103 163.8195 14.51760866625604
IRIDIUM 33 DEB          
1 38022U 97051YJ  26056.53359640  .00003179  00000+0  95268-3 0  9993
2 38022  86.2730 343.6792 0044157 157.1219 203.1962 14.41987333702717
IRIDIUM 33 DEB          
1 38028U 97051YQ  26056.05542754  .00000921  00000+0  24956-3 0  9994
2 38028  86.3278 327.9721 0026047 233.9975 125.8813 14.46466531665695
IRIDIUM 33 DEB          
1 38228U 97051ZC  26058.62218927  .00000848  00000+0  33141-3 0  9997
2 38228  86.2968  15.7717 0062534 304.9916 181.5066 14.27429375858781
